DMSP 5D-3 F16 (USA 172) 
1 28054U 03048A   26167.60879844 -.00000008  00000+0  19247-4 0  9997
2 28054  98.9890 191.4333 0007733 141.7493 330.7122 14.14483183169402
METEOSAT-9 (MSG-2)      
1 28912U 05049B   26166.83834346  .00000118  00000+0  00000+0 0  9998
2 28912   9.3585  54.1816 0001578 343.5552 213.8225  1.00271428  6988
DMSP 5D-3 F17 (USA 191) 
1 29522U 06050A   26167.60400589  .00000005  00000+0  24815-4 0  9993
2 29522  98.7378 174.1860 0011183  60.9164 299.3129 14.14993055 12347
FENGYUN 3A              
1 32958U 08026A   26167.55394500  .00000048  00000+0  43321-4 0  9994
2 32958  98.6883 108.3989 0009567 125.3283 234.8789 14.19570994935311
GOES 14                 
1 35491U 09033A   26167.57039604 -.00000292  00000+0  00000+0 0  9995
2 35491   1.6889  83.0498 0001738  11.3263 157.9899  1.00110976  6585
DMSP 5D-3 F18 (USA 210) 
1 35951U 09057A   26167.57534665  .00000218  00000+0  13624-3 0  9996
2 35951  98.9037 148.3458 0009887 251.5205 108.4894 14.14896430859507
EWS-G2 (GOES 15)        
1 36411U 10008A   26167.55491948  .00000015  00000+0  00000+0 0  9995
2 36411   1.2764  82.8686 0005450  42.7522  42.6897  1.00275917 59632
COMS 1                  
1 36744U 10032A   26167.02256648  .00000042  00000+0  00000+0 0  9999
2 36744   4.8022  75.3676 0011457  11.7530 263.3984  0.99162472 51079
FENGYUN 3B              
1 37214U 10059A   26167.60709310  .00000101  00000+0  75723-4 0  9999
2 37214  98.9620 213.6192 0021835 185.5976 288.9930 14.14841962807348
SUOMI NPP               
1 37849U 11061A   26167.63568278  .00000050  00000+0  44553-4 0  9996
2 37849  98.7953 108.5155 0001565   8.1641 351.9560 14.19517222758368
METEOSAT-10 (MSG-3)     
1 38552U 12035B   26166.90073081 -.00000006  00000+0  00000+0 0  9998
2 38552   4.6688  61.0268 0001452 328.0735 199.6782  1.00276584 50842
METOP-B                 
1 38771U 12049A   26167.55610307  .00000090  00000+0  61007-4 0  9997
2 38771  98.6505 219.0679 0002275  21.3285 338.7987 14.21432598713175
INSAT-3D                
1 39216U 13038B   26167.64389184 -.00000342  00000+0  00000+0 0  9999
2 39216   1.9252  82.5469 0000561 310.9032 232.7718  1.00269377 47079
FENGYUN 3C              
1 39260U 13052A   26167.61977374  .00000061  00000+0  52116-4 0  9992
2 39260  98.4986 141.5206 0015287  29.1858 331.0168 14.15754870658486
METEOR-M 2              
1 40069U 14037A   26167.65287367 -.00000302  00000+0 -11903-3 0  9993
2 40069  98.5109 143.4101 0006802  45.6406 314.5328 14.21459824619246
HIMAWARI-8              
1 40267U 14060A   26167.57013604 -.00000277  00000+0  00000+0 0  9993
2 40267   0.0166 359.5441 0000989  89.0904 162.1176  1.00271778 42756
FENGYUN 2G              
1 40367U 14090A   26167.63336822 -.00000308  00000+0  00000+0 0  9999
2 40367   5.6372  72.8203 0004059 156.6698   3.1046  1.00272404 41993
METEOSAT-11 (MSG-4)     
1 40732U 15034A   26167.25903552  .00000063  00000+0  00000+0 0  9999
2 40732   3.1990  71.1157 0001750  11.1285 285.1801  1.00280081  7207
ELEKTRO-L 2             
1 41105U 15074A   26167.63786162 -.00000124  00000+0  00000+0 0  9995
2 41105   6.6931  70.5258 0000972 242.2635 167.2330  1.00270425 38506
SENTINEL-3A             
1 41335U 16011A   26167.58538634  .00000094  00000+0  56879-4 0  9990
2 41335  98.6249 234.9777 0001400 102.4098 257.7239 14.26739852537977
INSAT-3DR               
1 41752U 16054A   26167.55691281 -.00000078  00000+0  00000+0 0  9998
2 41752   0.1050  86.4161 0010616 187.4049 265.4636  1.00270847 35818
HIMAWARI-9              
1 41836U 16064A   26167.57013604 -.00000277  00000+0  00000+0 0  9992
2 41836   0.0207 275.9514 0000900 215.0227 119.8759  1.00270792 35202
GOES 16                 
1 41866U 16071A   26167.49628112 -.00000093  00000+0  00000+0 0  9996
2 41866   0.3397  85.5055 0000216 304.5214 308.7064  1.00270963 35098
FENGYUN 4A              
1 41882U 16077A   26167.66049208 -.00000360  00000+0  00000+0 0  9999
2 41882   2.3208  80.2817 0008708 153.3649  32.8183  1.00268738 34928
CYGFM05                 
1 41884U 16078A   26167.53813049  .00018323  00000+0  24871-3 0  9993
2 41884  34.9567 264.8883 0006920 144.6917 215.4267 15.56647841528659
CYGFM04                 
1 41885U 16078B   26167.57468470  .00023651  00000+0  26669-3 0  9999
2 41885  34.9314 232.3673 0006598 189.8115 170.2483 15.61485848528908
CYGFM02                 
1 41886U 16078C   26167.57654185  .00027611  00000+0  27656-3 0  9997
2 41886  34.9393 226.9084 0007626 190.6958 169.3607 15.64470618529077
CYGFM01                 
1 41887U 16078D   26167.59123301  .00019746  00000+0  26121-3 0  9997
2 41887  34.9397 265.5986 0006707 138.6965 221.4267 15.57326668528619
CYGFM08                 
1 41888U 16078E   26167.55173701  .00021847  00000+0  26093-3 0  9996
2 41888  34.9423 245.4563 0008278 171.1502 188.9370 15.59991626528876
CYGFM07                 
1 41890U 16078G   26167.57490554  .00021512  00000+0  25608-3 0  9999
2 41890  34.9435 233.6447 0007029 188.5559 171.5048 15.60091379528901
CYGFM03                 
1 41891U 16078H   26167.54591044  .00021657  00000+0  25793-3 0  9998
2 41891  34.9391 235.7754 0006411 175.8726 184.2053 15.60083999528878
